STARLINK-31710          
1 59378U 24062E   26068.71549580  .00001032  00000+0  46990-4 0  9994
2 59378  53.1602 255.6643 0001228  96.7544 263.3597 15.30191972109632
COSMOS 2588             
1 64095U 25109A   26068.81179522  .00009169  00000+0  32611-3 0  9998
2 64095  72.9704  73.5401 0005019 308.6780  51.3966 15.29122656 44425
